GLOBALSTAR M075         
1 37192U 10054E   25358.21427079 -.00000088  00000+0  85706-4 0  9993
2 37192  52.0022 322.9423 0000480 109.7567 352.3949 12.62261317699849
GLOBALSTAR M073         
1 37193U 10054F   26005.02722170 -.00000096  00000+0  43904-4 0  9996
2 37193  52.0032 200.9547 0001210  75.7511  90.2267 12.62268832703325
GLOBALSTAR M083         
1 37739U 11033A   26004.79963361 -.00000116  00000+0 -66622-4 0  9998
2 37739  51.9842 150.0977 0000932  89.0292  64.1463 12.62266292672314
GLOBALSTAR M088         
1 37740U 11033B   26005.14235037 -.00000085  00000+0  10484-3 0  9990
2 37740  52.0235  55.0871 0000457 135.1624 255.6138 12.62271306667902
GLOBALSTAR M091         
1 37741U 11033C   26004.47252348 -.00000098  00000+0  32946-4 0  9992
2 37741  52.0021  20.3340 0000106  90.4707  74.1354 12.62268366668602
GLOBALSTAR M085         
1 37742U 11033D   26005.13875336 -.00000091  00000+0  72809-4 0  9990
2 37742  52.0150 329.4553 0000423  21.3998 352.7401 12.62267670669204
GLOBALSTAR M081         
1 37743U 11033E   25351.59018587 -.00000087  00000+0  92331-4 0  9998
2 37743  51.9980  28.5496 0000222  94.7932  71.3857 12.62270971667009
GLOBALSTAR M089         
1 37744U 11033F   26005.15319523 -.00000063  00000+0  22921-3 0  9993
2 37744  51.9942 286.2234 0000917  75.6063  65.0553 12.62263268670193
